GLOBALSTAR M045 [-]     
1 25676U 99019A   24030.93887208 -.00000018  00000+0  66728-3 0  9999
2 25676  51.9985 299.5962 0000871   8.4353  72.8032 12.27029684131611
GLOBALSTAR M019 [-]     
1 25677U 99019B   24031.15067701  .00000057  00000+0  15301-2 0  9995
2 25677  51.9896  33.9670 0001015  31.5062  44.8114 12.13852248124240
GLOBALSTAR M044 [-]     
1 25678U 99019C   24030.90026352 -.00000052  00000+0  44004-3 0  9994
2 25678  51.9970 283.0648 0006471 142.7769 298.9473 11.90228047111397
GLOBALSTAR M025 [-]     
1 25770U 99031A   24030.84921713 -.00000069  00000+0 -41666-4 0  9990
2 25770  51.9783 245.2848 0002117  50.2674  37.7684 11.22549082425183
GLOBALSTAR M049 [-]     
1 25771U 99031B   24031.00864973 -.00000119  00000+0 -18739-2 0  9993
2 25771  51.9844 254.3917 0002176 245.8173 114.2396 11.12102946 61440
GLOBALSTAR M047 [-]     
1 25772U 99031C   24030.88215705 -.00000053  00000+0  45687-3 0  9991
2 25772  51.9850 299.7322 0016728 116.1863 244.0665 11.31918184414112
GLOBALSTAR M052 [-]     
1 25773U 99031D   24030.95621583 -.00000056  00000+0  33238-3 0  9997
2 25773  51.9908  10.2573 0002663  57.7547 338.7960 11.15047753422376
